STARLINK-37187
1 68399U 26063V   26092.75002314 -.01834573  10161-2 -35747-2 0  9995
2 68399  97.2813 233.5566 0001626  66.9644 117.1108 16.00392506  2325
